CSS (TIANHE)            
1 48274U 21035A   23246.44677106  .00036854  00000+0  41618-3 0  9996
2 48274  41.4743  40.0213 0010788 292.5500  67.4197 15.61678120134062
